{
  "type": "FeatureCollection",
  "features": [
    {
      "type": "Feature",
      "properties": {
        "norad_id": 19071,
        "name": "OSCAR 32",
        "group": "nnss",
        "lat": 23.190817525508905,
        "lon": 16.292432952889378,
        "alt_km": 1278.4540902157905,
        "timestamp": "2025-12-09T16:56:36.843314+00:00",
        "meta_object_name": "OSCAR 32",
        "meta_object_id": "1988-033B",
        "meta_epoch": "2025-12-09T12:03:27.411840",
        "meta_mean_motion": 13.2795343,
        "meta_eccentricity": 0.0188095,
        "meta_inclination": 90.322,
        "meta_ra_of_asc_node": 16.4241,
        "meta_arg_of_pericenter": 175.7825,
        "meta_mean_anomaly": 315.8544,
        "meta_ephemeris_type": 0,
        "meta_classification_type": "U",
        "meta_norad_cat_id": 19071,
        "meta_element_set_no": 999,
        "meta_rev_at_epoch": 82222,
        "meta_bstar": 0.00020819,
        "meta_mean_motion_dot": 1.12e-06,
        "meta_mean_motion_ddot": 0,
        "tle_line1": "1 19071U 88033B   25343.50240060  .00000112  00000+0  20819-3 0  9990",
        "tle_line2": "2 19071  90.3220  16.4241 0188095 175.7825 315.8544 13.27953430822223"
      },
      "geometry": {
        "type": "Point",
        "coordinates": [
          16.292432952889378,
          23.190817525508905
        ]
      }
    },
    {
      "type": "Feature",
      "properties": {
        "norad_id": 19223,
        "name": "NOVA 2",
        "group": "nnss",
        "lat": -84.07381854485416,
        "lon": 78.15179586467033,
        "alt_km": 1188.6014188115087,
        "timestamp": "2025-12-09T16:56:36.843324+00:00",
        "meta_object_name": "NOVA 2",
        "meta_object_id": "1988-052A",
        "meta_epoch": "2025-12-09T11:58:35.893056",
        "meta_mean_motion": 13.22935434,
        "meta_eccentricity": 0.003086,
        "meta_inclination": 89.9871,
        "meta_ra_of_asc_node": 78.2764,
        "meta_arg_of_pericenter": 25.6927,
        "meta_mean_anomaly": 345.5119,
        "meta_ephemeris_type": 0,
        "meta_classification_type": "U",
        "meta_norad_cat_id": 19223,
        "meta_element_set_no": 999,
        "meta_rev_at_epoch": 80905,
        "meta_bstar": 0.00022127,
        "meta_mean_motion_dot": 1.02e-06,
        "meta_mean_motion_ddot": 0,
        "tle_line1": "1 19223U 88052A   25343.49902654  .00000102  00000+0  22127-3 0  9995",
        "tle_line2": "2 19223  89.9871  78.2764 0030860  25.6927 345.5119 13.22935434809059"
      },
      "geometry": {
        "type": "Point",
        "coordinates": [
          78.15179586467033,
          -84.07381854485416
        ]
      }
    },
    {
      "type": "Feature",
      "properties": {
        "norad_id": 19419,
        "name": "OSCAR 25",
        "group": "nnss",
        "lat": 43.13482561280446,
        "lon": -159.73301774701213,
        "alt_km": 1128.4489894494454,
        "timestamp": "2025-12-09T16:56:36.843334+00:00",
        "meta_object_name": "OSCAR 25",
        "meta_object_id": "1988-074A",
        "meta_epoch": "2025-12-09T04:03:49.083840",
        "meta_mean_motion": 13.42622336,
        "meta_eccentricity": 0.00943128,
        "meta_inclination": 90.0349,
        "meta_ra_of_asc_node": 20.2324,
        "meta_arg_of_pericenter": 256.2044,
        "meta_mean_anomaly": 169.1401,
        "meta_ephemeris_type": 0,
        "meta_classification_type": "U",
        "meta_norad_cat_id": 19419,
        "meta_element_set_no": 999,
        "meta_rev_at_epoch": 82592,
        "meta_bstar": 0.00022175598,
        "meta_mean_motion_dot": 1.37e-06,
        "meta_mean_motion_ddot": 0,
        "tle_line1": "1 19419U 88074A   25343.16931810  .00000137  00000+0  22176-3 0  9998",
        "tle_line2": "2 19419  90.0349  20.2324 0094312 256.2044 169.1401 13.42622336825926"
      },
      "geometry": {
        "type": "Point",
        "coordinates": [
          -159.73301774701213,
          43.13482561280446
        ]
      }
    },
    {
      "type": "Feature",
      "properties": {
        "norad_id": 19420,
        "name": "OSCAR 31",
        "group": "nnss",
        "lat": 22.604663031960573,
        "lon": 20.56844756629025,
        "alt_km": 1147.0350575294988,
        "timestamp": "2025-12-09T16:56:36.843345+00:00",
        "meta_object_name": "OSCAR 31",
        "meta_object_id": "1988-074B",
        "meta_epoch": "2025-12-09T12:06:07.808256",
        "meta_mean_motion": 13.42583896,
        "meta_eccentricity": 0.0092604,
        "meta_inclination": 90.0367,
        "meta_ra_of_asc_node": 20.583,
        "meta_arg_of_pericenter": 249.3335,
        "meta_mean_anomaly": 238.1831,
        "meta_ephemeris_type": 0,
        "meta_classification_type": "U",
        "meta_norad_cat_id": 19420,
        "meta_element_set_no": 999,
        "meta_rev_at_epoch": 82607,
        "meta_bstar": 0.00020451,
        "meta_mean_motion_dot": 1.27e-06,
        "meta_mean_motion_ddot": 0,
        "tle_line1": "1 19420U 88074B   25343.50425704  .00000127  00000+0  20451-3 0  9991",
        "tle_line2": "2 19420  90.0367  20.5830 0092604 249.3335 238.1831 13.42583896826079"
      },
      "geometry": {
        "type": "Point",
        "coordinates": [
          20.56844756629025,
          22.604663031960573
        ]
      }
    }
  ]
}